*******************************************************************************
Ephemeris / WWW_USER Mon Jul 15 19:25:38 2024 Pasadena, USA      / Horizons    
*******************************************************************************
Target body name: (2018 RA1)                      {source: JPL#6}
Center body name: Earth (399)                     {source: DE441}
Center-site name: Gemini South Obs., Cerro Pachon
*******************************************************************************
Start time      : A.D. 2019-Jan-25 23:54:00.0000 UT      
Stop  time      : A.D. 2019-Jan-26 09:56:00.0000 UT      
Step-size       : 1 minutes
*******************************************************************************
Target pole/equ : undefined
Target radii    : undefined                                                    
Center geodetic : 289.2634, -30.2406227, 2.71233  {E-lon(deg),Lat(deg),Alt(km)}
Center cylindric: 289.2634,5517.21435,-3194.81213 {E-lon(deg),Dxy(km),Dz(km)}
Center pole/equ : ITRF93                          {East-longitude positive}
Center radii    : 6378.137, 6378.137, 6356.752 km {Equator_a, b, pole_c}       
Target primary  : Sun
Vis. interferer : MOON (R_eq= 1737.400) km        {source: DE441}
Rel. light bend : Sun                             {source: DE441}
Rel. lght bnd GM: 1.3271E+11 km^3/s^2                                          
Small-body perts: Yes                             {source: SB441-N16}
Atmos refraction: NO (AIRLESS)
RA format       : HMS
Time format     : CAL 
Calendar mode   : Mixed Julian/Gregorian
RTS-only print  : NO       
EOP file        : eop.240715.p241008                                           
EOP coverage    : DATA-BASED 1962-JAN-20 TO 2024-JUL-15. PREDICTS-> 2024-OCT-07
Units conversion: 1 au= 149597870.700 km, c= 299792.458 km/s, 1 day= 86400.0 s 
Table cut-offs 1: Elevation (-90.0deg=NO ),Airmass (>38.000=NO), Daylight (YES)
Table cut-offs 2: Solar elongation (  0.0,180.0=NO ),Local Hour Angle( 0.0=NO )
Table cut-offs 3: RA/DEC angular rate (     0.0=NO )                           
*******************************************************************************
Initial IAU76/J2000 heliocentric ecliptic osculating elements (au, days, deg.):
  EPOCH=  2458369.5 ! 2018-Sep-08.00 (TDB)         Residual RMS= .21275        
   EC= .3232115344739424   QR= .7703453101153647   TP= 2458436.6763547547      
   OM= 166.2054176892707   W=  269.7217787981747   IN= 8.763099478405824       
  Equivalent ICRF heliocentric cartesian coordinates (au, au/d):
   X= 9.899686155013647E-01  Y=-2.468208982240139E-01  Z=-1.030323866474361E-01
  VX=-9.411283005844916E-04 VY= 1.717513364149167E-02 VZ= 4.613440841260365E-03
Asteroid physical parameters (km, seconds, rotational period in hours):        
   GM= n.a.                RAD= n.a.               ROTPER= n.a.                
   H= 26.4                 G= .150                 B-V= n.a.                   
                           ALBEDO= n.a.            STYP= n.a.                  
*******************************************************************************
 Date__(UT)__HR:MN     R.A._________(ICRF)_________DEC
******************************************************
$$SOE
 2019-Jan-25 23:54 C   15 26 06.647128 -17 36 33.19634
 2019-Jan-25 23:55 C   15 26 06.758740 -17 36 33.13046
 2019-Jan-25 23:56 C   15 26 06.870351 -17 36 33.06463
 2019-Jan-25 23:57 C   15 26 06.981961 -17 36 32.99885
 2019-Jan-25 23:58 C   15 26 07.093571 -17 36 32.93312
 2019-Jan-25 23:59 C   15 26 07.205179 -17 36 32.86744
 2019-Jan-26 00:00 C   15 26 07.316786 -17 36 32.80181
 2019-Jan-26 00:01 C   15 26 07.428392 -17 36 32.73623
 2019-Jan-26 00:02 C   15 26 07.539997 -17 36 32.67070
 2019-Jan-26 00:03 C   15 26 07.651600 -17 36 32.60522
 2019-Jan-26 00:04 C   15 26 07.763203 -17 36 32.53978
 2019-Jan-26 00:05 C   15 26 07.874804 -17 36 32.47440
 2019-Jan-26 00:06 C   15 26 07.986403 -17 36 32.40906
 2019-Jan-26 00:07 C   15 26 08.098002 -17 36 32.34377
 2019-Jan-26 00:08 C   15 26 08.209598 -17 36 32.27854
 2019-Jan-26 00:09 C   15 26 08.321193 -17 36 32.21335
 2019-Jan-26 00:10 C   15 26 08.432787 -17 36 32.14821
 2019-Jan-26 00:11 C   15 26 08.544379 -17 36 32.08312
 2019-Jan-26 00:12 N   15 26 08.655969 -17 36 32.01808
 2019-Jan-26 00:13 N   15 26 08.767557 -17 36 31.95308
 2019-Jan-26 00:14 N   15 26 08.879144 -17 36 31.88814
 2019-Jan-26 00:15 N   15 26 08.990728 -17 36 31.82324
 2019-Jan-26 00:16 N   15 26 09.102311 -17 36 31.75840
 2019-Jan-26 00:17 N   15 26 09.213892 -17 36 31.69360
 2019-Jan-26 00:18 N   15 26 09.325471 -17 36 31.62885
 2019-Jan-26 00:19 N   15 26 09.437047 -17 36 31.56416
 2019-Jan-26 00:20 N   15 26 09.548622 -17 36 31.49950
 2019-Jan-26 00:21 N   15 26 09.660194 -17 36 31.43490
 2019-Jan-26 00:22 N   15 26 09.771764 -17 36 31.37035
 2019-Jan-26 00:23 N   15 26 09.883331 -17 36 31.30585
 2019-Jan-26 00:24 N   15 26 09.994897 -17 36 31.24139
 2019-Jan-26 00:25 N   15 26 10.106460 -17 36 31.17698
 2019-Jan-26 00:26 N   15 26 10.218020 -17 36 31.11263
 2019-Jan-26 00:27 N   15 26 10.329578 -17 36 31.04832
 2019-Jan-26 00:28 N   15 26 10.441133 -17 36 30.98405
 2019-Jan-26 00:29 N   15 26 10.552686 -17 36 30.91984
 2019-Jan-26 00:30 N   15 26 10.664235 -17 36 30.85568
 2019-Jan-26 00:31 N   15 26 10.775783 -17 36 30.79156
 2019-Jan-26 00:32 N   15 26 10.887327 -17 36 30.72749
 2019-Jan-26 00:33 N   15 26 10.998868 -17 36 30.66347
 2019-Jan-26 00:34 N   15 26 11.110407 -17 36 30.59950
 2019-Jan-26 00:35 N   15 26 11.221943 -17 36 30.53558
 2019-Jan-26 00:36 N   15 26 11.333475 -17 36 30.47171
 2019-Jan-26 00:37 N   15 26 11.445005 -17 36 30.40788
 2019-Jan-26 00:38 N   15 26 11.556531 -17 36 30.34410
 2019-Jan-26 00:39 N   15 26 11.668054 -17 36 30.28037
 2019-Jan-26 00:40 N   15 26 11.779574 -17 36 30.21669
 2019-Jan-26 00:41 N   15 26 11.891091 -17 36 30.15305
 2019-Jan-26 00:42 N   15 26 12.002604 -17 36 30.08946
 2019-Jan-26 00:43 N   15 26 12.114114 -17 36 30.02593
 2019-Jan-26 00:44 A   15 26 12.225620 -17 36 29.96243
 2019-Jan-26 00:45 A   15 26 12.337123 -17 36 29.89899
 2019-Jan-26 00:46 A   15 26 12.448623 -17 36 29.83559
 2019-Jan-26 00:47 A   15 26 12.560118 -17 36 29.77225
 2019-Jan-26 00:48 A   15 26 12.671610 -17 36 29.70895
 2019-Jan-26 00:49 A   15 26 12.783099 -17 36 29.64569
 2019-Jan-26 00:50 A   15 26 12.894583 -17 36 29.58249
 2019-Jan-26 00:51 A   15 26 13.006064 -17 36 29.51933
 2019-Jan-26 00:52 A   15 26 13.117541 -17 36 29.45622
 2019-Jan-26 00:53 A   15 26 13.229014 -17 36 29.39315
 2019-Jan-26 00:54 A   15 26 13.340483 -17 36 29.33013
 2019-Jan-26 00:55 A   15 26 13.451948 -17 36 29.26716
 2019-Jan-26 00:56 A   15 26 13.563409 -17 36 29.20424
 2019-Jan-26 00:57 A   15 26 13.674865 -17 36 29.14136
 2019-Jan-26 00:58 A   15 26 13.786318 -17 36 29.07853
 2019-Jan-26 00:59 A   15 26 13.897766 -17 36 29.01575
 2019-Jan-26 01:00 A   15 26 14.009210 -17 36 28.95302
 2019-Jan-26 01:01 A   15 26 14.120650 -17 36 28.89033
 2019-Jan-26 01:02 A   15 26 14.232085 -17 36 28.82768
 2019-Jan-26 01:03 A   15 26 14.343516 -17 36 28.76509
 2019-Jan-26 01:04 A   15 26 14.454942 -17 36 28.70254
 2019-Jan-26 01:05 A   15 26 14.566363 -17 36 28.64003
 2019-Jan-26 01:06 A   15 26 14.677780 -17 36 28.57758
 2019-Jan-26 01:07 A   15 26 14.789193 -17 36 28.51517
 2019-Jan-26 01:08 A   15 26 14.900600 -17 36 28.45280
 2019-Jan-26 01:09 A   15 26 15.012003 -17 36 28.39048
 2019-Jan-26 01:10 A   15 26 15.123401 -17 36 28.32821
 2019-Jan-26 01:11 A   15 26 15.234794 -17 36 28.26598
 2019-Jan-26 01:12 A   15 26 15.346183 -17 36 28.20380
 2019-Jan-26 01:13 A   15 26 15.457566 -17 36 28.14167
 2019-Jan-26 01:14 A   15 26 15.568944 -17 36 28.07958
 2019-Jan-26 01:15 A   15 26 15.680317 -17 36 28.01753
 2019-Jan-26 01:16 A   15 26 15.791685 -17 36 27.95553
 2019-Jan-26 01:17     15 26 15.903048 -17 36 27.89358
 2019-Jan-26 01:18     15 26 16.014406 -17 36 27.83167
 2019-Jan-26 01:19     15 26 16.125758 -17 36 27.76981
 2019-Jan-26 01:20     15 26 16.237105 -17 36 27.70799
 2019-Jan-26 01:21     15 26 16.348446 -17 36 27.64622
 2019-Jan-26 01:22     15 26 16.459783 -17 36 27.58449
 2019-Jan-26 01:23     15 26 16.571113 -17 36 27.52280
 2019-Jan-26 01:24     15 26 16.682438 -17 36 27.46116
 2019-Jan-26 01:25     15 26 16.793758 -17 36 27.39957
 2019-Jan-26 01:26     15 26 16.905072 -17 36 27.33802
 2019-Jan-26 01:27     15 26 17.016380 -17 36 27.27652
 2019-Jan-26 01:28     15 26 17.127682 -17 36 27.21505
 2019-Jan-26 01:29     15 26 17.238979 -17 36 27.15364
 2019-Jan-26 01:30     15 26 17.350270 -17 36 27.09226
 2019-Jan-26 01:31     15 26 17.461554 -17 36 27.03094
 2019-Jan-26 01:32     15 26 17.572833 -17 36 26.96965
 2019-Jan-26 01:33     15 26 17.684106 -17 36 26.90841
 2019-Jan-26 01:34     15 26 17.795373 -17 36 26.84721
 2019-Jan-26 01:35     15 26 17.906634 -17 36 26.78606
 2019-Jan-26 01:36     15 26 18.017889 -17 36 26.72495
 2019-Jan-26 01:37     15 26 18.129137 -17 36 26.66388
 2019-Jan-26 01:38     15 26 18.240379 -17 36 26.60286
 2019-Jan-26 01:39     15 26 18.351615 -17 36 26.54188
 2019-Jan-26 01:40     15 26 18.462845 -17 36 26.48094
 2019-Jan-26 01:41     15 26 18.574068 -17 36 26.42005
 2019-Jan-26 01:42     15 26 18.685285 -17 36 26.35920
 2019-Jan-26 01:43     15 26 18.796495 -17 36 26.29839
 2019-Jan-26 01:44     15 26 18.907699 -17 36 26.23762
 2019-Jan-26 01:45     15 26 19.018896 -17 36 26.17690
 2019-Jan-26 01:46     15 26 19.130087 -17 36 26.11622
 2019-Jan-26 01:47     15 26 19.241271 -17 36 26.05558
 2019-Jan-26 01:48     15 26 19.352448 -17 36 25.99498
 2019-Jan-26 01:49     15 26 19.463618 -17 36 25.93442
 2019-Jan-26 01:50     15 26 19.574782 -17 36 25.87391
 2019-Jan-26 01:51     15 26 19.685939 -17 36 25.81344
 2019-Jan-26 01:52     15 26 19.797088 -17 36 25.75301
 2019-Jan-26 01:53     15 26 19.908231 -17 36 25.69262
 2019-Jan-26 01:54     15 26 20.019367 -17 36 25.63228
 2019-Jan-26 01:55     15 26 20.130496 -17 36 25.57197
 2019-Jan-26 01:56     15 26 20.241617 -17 36 25.51171
